CCSDS_OMM_VERS = 2.0
CREATION_DATE  = 
ORIGINATOR     = 

OBJECT_NAME    = SL-3 R/B
OBJECT_ID      = 1982-079B
CENTER_NAME    = EARTH
REF_FRAME      = TEME
TIME_SYSTEM    = UTC
MEAN_ELEMENT_THEORY = SGP/SGP4

EPOCH          = 2026-02-02T10:06:12.837024
MEAN_MOTION    = 15.24288224
ECCENTRICITY   = .0024248
INCLINATION    = 81.1436
RA_OF_ASC_NODE = 234.7098
ARG_OF_PERICENTER = 286.5281
MEAN_ANOMALY   = 73.3288

EPHEMERIS_TYPE = 0
CLASSIFICATION_TYPE = U
NORAD_CAT_ID   = 13403
ELEMENT_SET_NO = 999
REV_AT_EPOCH   = 37232
BSTAR          = .21091E-3
MEAN_MOTION_DOT = .5219E-4
MEAN_MOTION_DDOT = 0

CCSDS_OMM_VERS = 2.0
CREATION_DATE  = 
ORIGINATOR     = 

OBJECT_NAME    = SL-14 R/B
OBJECT_ID      = 1982-092B
CENTER_NAME    = EARTH
REF_FRAME      = TEME
TIME_SYSTEM    = UTC
MEAN_ELEMENT_THEORY = SGP/SGP4

EPOCH          = 2026-02-02T10:35:48.437376
MEAN_MOTION    = 14.86624266
ECCENTRICITY   = .0021659
INCLINATION    = 82.5695
RA_OF_ASC_NODE = 174.3578
ARG_OF_PERICENTER = 60.4551
MEAN_ANOMALY   = 358.9146

EPHEMERIS_TYPE = 0
CLASSIFICATION_TYPE = U
NORAD_CAT_ID   = 13553
ELEMENT_SET_NO = 999
REV_AT_EPOCH   = 32369
BSTAR          = .6484E-4
MEAN_MOTION_DOT = .602E-5
MEAN_MOTION_DDOT = 0

CCSDS_OMM_VERS = 2.0
CREATION_DATE  = 
ORIGINATOR     = 

OBJECT_NAME    = SL-3 R/B
OBJECT_ID      = 1983-010B
CENTER_NAME    = EARTH
REF_FRAME      = TEME
TIME_SYSTEM    = UTC
MEAN_ELEMENT_THEORY = SGP/SGP4

EPOCH          = 2026-02-02T11:30:47.306016
MEAN_MOTION    = 15.45110316
ECCENTRICITY   = .0017433
INCLINATION    = 81.1012
RA_OF_ASC_NODE = 45.3771
ARG_OF_PERICENTER = 164.1278
MEAN_ANOMALY   = 196.0517

EPHEMERIS_TYPE = 0
CLASSIFICATION_TYPE = U
NORAD_CAT_ID   = 13819
ELEMENT_SET_NO = 999
REV_AT_EPOCH   = 35250
BSTAR          = .28984E-3
MEAN_MOTION_DOT = .13829E-3
MEAN_MOTION_DDOT = 0

CCSDS_OMM_VERS = 2.0
CREATION_DATE  = 
ORIGINATOR     = 

OBJECT_NAME    = SL-3 R/B
OBJECT_ID      = 1983-075B
CENTER_NAME    = EARTH
REF_FRAME      = TEME
TIME_SYSTEM    = UTC
MEAN_ELEMENT_THEORY = SGP/SGP4

EPOCH          = 2026-02-02T11:42:18.854208
MEAN_MOTION    = 15.37482392
ECCENTRICITY   = .0022046
INCLINATION    = 97.6119
RA_OF_ASC_NODE = 36.7637
ARG_OF_PERICENTER = 1.4366
MEAN_ANOMALY   = 358.6937

EPHEMERIS_TYPE = 0
CLASSIFICATION_TYPE = U
NORAD_CAT_ID   = 14208
ELEMENT_SET_NO = 999
REV_AT_EPOCH   = 32474
BSTAR          = .34548E-3
MEAN_MOTION_DOT = .12722E-3
MEAN_MOTION_DDOT = 0

CCSDS_OMM_VERS = 2.0
CREATION_DATE  = 
ORIGINATOR     = 

OBJECT_NAME    = COSMOS 1536
OBJECT_ID      = 1984-013A
CENTER_NAME    = EARTH
REF_FRAME      = TEME
TIME_SYSTEM    = UTC
MEAN_ELEMENT_THEORY = SGP/SGP4

EPOCH          = 2026-02-02T09:15:29.490336
MEAN_MOTION    = 15.23335008
ECCENTRICITY   = .0015355
INCLINATION    = 82.5478
RA_OF_ASC_NODE = 142.9210
ARG_OF_PERICENTER = 50.9744
MEAN_ANOMALY   = 309.2857

EPHEMERIS_TYPE = 0
CLASSIFICATION_TYPE = U
NORAD_CAT_ID   = 14699
ELEMENT_SET_NO = 999
REV_AT_EPOCH   = 26724
BSTAR          = .30278E-3
MEAN_MOTION_DOT = .7244E-4
MEAN_MOTION_DDOT = 0

CCSDS_OMM_VERS = 2.0
CREATION_DATE  = 
ORIGINATOR     = 

OBJECT_NAME    = SL-14 R/B
OBJECT_ID      = 1984-027B
CENTER_NAME    = EARTH
REF_FRAME      = TEME
TIME_SYSTEM    = UTC
MEAN_ELEMENT_THEORY = SGP/SGP4

EPOCH          = 2026-02-02T03:19:31.217664
MEAN_MOTION    = 14.85940144
ECCENTRICITY   = .00195476
INCLINATION    = 82.5411
RA_OF_ASC_NODE = 278.3616
ARG_OF_PERICENTER = 91.0661
MEAN_ANOMALY   = 269.2795

EPHEMERIS_TYPE = 0
CLASSIFICATION_TYPE = U
NORAD_CAT_ID   = 14820
ELEMENT_SET_NO = 999
REV_AT_EPOCH   = 24235
BSTAR          = .50615891E-4
MEAN_MOTION_DOT = .468E-5
MEAN_MOTION_DDOT = 0

CCSDS_OMM_VERS = 2.0
CREATION_DATE  = 
ORIGINATOR     = 

OBJECT_NAME    = SL-8 R/B
OBJECT_ID      = 1985-006B
CENTER_NAME    = EARTH
REF_FRAME      = TEME
TIME_SYSTEM    = UTC
MEAN_ELEMENT_THEORY = SGP/SGP4

EPOCH          = 2026-02-02T07:52:22.987776
MEAN_MOTION    = 14.37763951
ECCENTRICITY   = .0019648
INCLINATION    = 74.0476
RA_OF_ASC_NODE = 326.2149
ARG_OF_PERICENTER = 250.6006
MEAN_ANOMALY   = 257.0677

EPHEMERIS_TYPE = 0
CLASSIFICATION_TYPE = U
NORAD_CAT_ID   = 15483
ELEMENT_SET_NO = 999
REV_AT_EPOCH   = 14894
BSTAR          = .10035E-3
MEAN_MOTION_DOT = .276E-5
MEAN_MOTION_DDOT = 0

CCSDS_OMM_VERS = 2.0
CREATION_DATE  = 
ORIGINATOR     = 

OBJECT_NAME    = SL-12 R/B(2)
OBJECT_ID      = 1985-042D
CENTER_NAME    = EARTH
REF_FRAME      = TEME
TIME_SYSTEM    = UTC
MEAN_ELEMENT_THEORY = SGP/SGP4

EPOCH          = 2026-02-02T12:33:15.560928
MEAN_MOTION    = 14.21971494
ECCENTRICITY   = .0035317
INCLINATION    = 71.1082
RA_OF_ASC_NODE = 162.0232
ARG_OF_PERICENTER = 184.0923
MEAN_ANOMALY   = 246.8395

EPHEMERIS_TYPE = 0
CLASSIFICATION_TYPE = U
NORAD_CAT_ID   = 15772
ELEMENT_SET_NO = 999
REV_AT_EPOCH   = 10939
BSTAR          = .70215E-4
MEAN_MOTION_DOT = .108E-5
MEAN_MOTION_DDOT = 0

CCSDS_OMM_VERS = 2.0
CREATION_DATE  = 
ORIGINATOR     = 

OBJECT_NAME    = SL-14 R/B
OBJECT_ID      = 1985-069B
CENTER_NAME    = EARTH
REF_FRAME      = TEME
TIME_SYSTEM    = UTC
MEAN_ELEMENT_THEORY = SGP/SGP4

EPOCH          = 2026-02-02T11:17:47.956416
MEAN_MOTION    = 14.86390311
ECCENTRICITY   = .0017586
INCLINATION    = 82.5239
RA_OF_ASC_NODE = 58.0589
ARG_OF_PERICENTER = 312.5051
MEAN_ANOMALY   = 47.4679

EPHEMERIS_TYPE = 0
CLASSIFICATION_TYPE = U
NORAD_CAT_ID   = 15945
ELEMENT_SET_NO = 999
REV_AT_EPOCH   = 16760
BSTAR          = .55778E-4
MEAN_MOTION_DOT = .517E-5
MEAN_MOTION_DDOT = 0

CCSDS_OMM_VERS = 2.0
CREATION_DATE  = 
ORIGINATOR     = 

OBJECT_NAME    = SL-16 R/B
OBJECT_ID      = 1985-097B
CENTER_NAME    = EARTH
REF_FRAME      = TEME
TIME_SYSTEM    = UTC
MEAN_ELEMENT_THEORY = SGP/SGP4

EPOCH          = 2026-02-02T11:02:52.358208
MEAN_MOTION    = 14.16594735
ECCENTRICITY   = .0009328
INCLINATION    = 71.0012
RA_OF_ASC_NODE = 214.7177
ARG_OF_PERICENTER = 301.1495
MEAN_ANOMALY   = 79.0223

EPHEMERIS_TYPE = 0
CLASSIFICATION_TYPE = U
NORAD_CAT_ID   = 16182
ELEMENT_SET_NO = 999
REV_AT_EPOCH   = 8224
BSTAR          = .13722E-3
MEAN_MOTION_DOT = .226E-5
MEAN_MOTION_DDOT = 0

CCSDS_OMM_VERS = 2.0
CREATION_DATE  = 
ORIGINATOR     = 

OBJECT_NAME    = SL-14 R/B
OBJECT_ID      = 1986-006B
CENTER_NAME    = EARTH
REF_FRAME      = TEME
TIME_SYSTEM    = UTC
MEAN_ELEMENT_THEORY = SGP/SGP4

EPOCH          = 2026-02-02T04:30:24.757920
MEAN_MOTION    = 14.86762603
ECCENTRICITY   = .00775
INCLINATION    = 82.5278
RA_OF_ASC_NODE = 293.1506
ARG_OF_PERICENTER = 31.4063
MEAN_ANOMALY   = 329.1746

EPHEMERIS_TYPE = 0
CLASSIFICATION_TYPE = U
NORAD_CAT_ID   = 16496
ELEMENT_SET_NO = 999
REV_AT_EPOCH   = 14393
BSTAR          = .89485E-4
MEAN_MOTION_DOT = .868E-5
MEAN_MOTION_DDOT = 0

CCSDS_OMM_VERS = 2.0
CREATION_DATE  = 
ORIGINATOR     = 

OBJECT_NAME    = COSMOS 1743
OBJECT_ID      = 1986-034A
CENTER_NAME    = EARTH
REF_FRAME      = TEME
TIME_SYSTEM    = UTC
MEAN_ELEMENT_THEORY = SGP/SGP4

EPOCH          = 2026-02-02T11:49:16.967136
MEAN_MOTION    = 15.55971238
ECCENTRICITY   = .0005343
INCLINATION    = 82.5342
RA_OF_ASC_NODE = 110.6942
ARG_OF_PERICENTER = 69.2096
MEAN_ANOMALY   = 290.9730

EPHEMERIS_TYPE = 0
CLASSIFICATION_TYPE = U
NORAD_CAT_ID   = 16719
ELEMENT_SET_NO = 999
REV_AT_EPOCH   = 17477
BSTAR          = .4871E-3
MEAN_MOTION_DOT = .33972E-3
MEAN_MOTION_DDOT = 0

