SL-3 R/B                
1 13403U 82079B   26033.42098191  .00005219  00000+0  21091-3 0  9997
2 13403  81.1436 234.7098 0024248 286.5281  73.3288 15.24288224372327
SL-14 R/B               
1 13553U 82092B   26033.44153284  .00000602  00000+0  64840-4 0  9996
2 13553  82.5695 174.3578 0021659  60.4551 358.9146 14.86624266323697
SL-3 R/B                
1 13819U 83010B   26033.47971419  .00013829  00000+0  28984-3 0  9996
2 13819  81.1012  45.3771 0017433 164.1278 196.0517 15.45110316352502
SL-3 R/B                
1 14208U 83075B   26033.48771822  .00012722  00000+0  34548-3 0  9991
2 14208  97.6119  36.7637 0022046   1.4366 358.6937 15.37482392324741
COSMOS 1536             
1 14699U 84013A   26033.38575799  .00007244  00000+0  30278-3 0  9991
2 14699  82.5478 142.9210 0015355  50.9744 309.2857 15.23335008267247
SL-14 R/B               
1 14820U 84027B   26033.13855576  .00000468  00000+0  50616-4 0  9999
2 14820  82.5411 278.3616 0019547  91.0661 269.2795 14.85940144242356
SL-8 R/B                
1 15483U 85006B   26033.32804384  .00000276  00000+0  10035-3 0  9992
2 15483  74.0476 326.2149 0019648 250.6006 257.0677 14.37763951148941
SL-12 R/B(2)            
1 15772U 85042D   26033.52309677  .00000108  00000+0  70215-4 0  9991
2 15772  71.1082 162.0232 0035317 184.0923 246.8395 14.21971494109396
SL-14 R/B               
1 15945U 85069B   26033.47069394  .00000517  00000+0  55778-4 0  9996
2 15945  82.5239  58.0589 0017586 312.5051  47.4679 14.86390311167607
SL-16 R/B               
1 16182U 85097B   26033.46032822  .00000226  00000+0  13722-3 0  9995
2 16182  71.0012 214.7177 0009328 301.1495  79.0223 14.16594735 82249
SL-14 R/B               
1 16496U 86006B   26033.18778655  .00000868  00000+0  89485-4 0  9996
2 16496  82.5278 293.1506 0077500  31.4063 329.1746 14.86762603143937
COSMOS 1743             
1 16719U 86034A   26033.49255749  .00033972  00000+0  48710-3 0  9990
2 16719  82.5342 110.6942 0005343  69.2096 290.9730 15.55971238174772
